FLOCK 4G-29             
1 62642U 25009AK  26068.81464037  .00011147  00000+0  41831-3 0  9994
2 62642  97.4058 151.3683 0001366 288.0502  72.0588 15.27382318 63721
STARLINK-36117          
1 66865U 25281T   26068.19492460  .00025471  00000+0  93134-3 0  9997
2 66865  43.0016 345.9355 0001709 245.5337 114.5336 15.27600059 16114
